IRIDIUM 171             
1 43929U 19002H   25360.62378841  .00000296  00000+0  98576-4 0  9999
2 43929  86.3966  65.9997 0002445  95.4342 264.7132 14.34220298364221
IRIDIUM 170             
1 43930U 19002J   25360.93498439  .00001122  00000+0  17393-3 0  9997
2 43930  86.6078  65.5786 0002294  91.3121 268.8359 14.72267873373918
IRIDIUM 167             
1 43931U 19002K   25360.89651688 -.00000021  00000+0 -14411-4 0  9998
2 43931  86.3951  65.6187 0002527  98.9295 261.2187 14.34217321364261
IRIDIUM 181             
1 56726U 23068S   25360.89224614  .00000240  00000+0  65421-4 0  9994
2 56726  86.4524 128.8158 0002129  82.8717 277.2726 14.43310657137588
IRIDIUM 177             
1 56727U 23068T   25360.87088620  .00001466  00000+0  18938-3 0  9999
2 56727  86.1954  50.6175 0002142  87.7251 272.4215 14.80243699140874
IRIDIUM 174             
1 56728U 23068U   25360.71874472  .00001077  00000+0  16687-3 0  9998
2 56728  86.6085  65.7991 0002059  92.2716 267.8737 14.72261430140648
IRIDIUM 178             
1 56729U 23068V   25360.72477058  .00001666  00000+0  21571-3 0  9991
2 56729  86.6543  97.4570 0002493  90.4599 269.6908 14.80241537140852
IRIDIUM 179             
1 56730U 23068W   25360.78700521  .00001628  00000+0  21083-3 0  9999
2 56730  86.6787 105.8970 0002404  90.4614 269.6883 14.80235789140867
